full_name,e,q,i,om,w,ad,tp_cal,per_y,class,data_arc,condition_code,n_obs_used,two_body,A1,A2,A3,DT
"     C/1984 S1 (Meier)",1.0,0.856856,145.6146,11.7104,128.0082,,19841013.9486000,,PAR,18,,6,T,,,,
"     C/1984 U1 (Shoemaker)",0.995209,5.489159,179.2123,238.3009,182.8308,2285.9568857,19840903.5610000,,COM,3563,,51,F,,,,
"     C/1984 U2 (Shoemaker)",0.970905,1.214510,13.8812,223.4750,229.2138,82.2713123,19850103.8879000,270,COM,168,,65,F,,,,
"     C/1984 V1 (Levy-Rudenko)",.999197597926641,.9179465212688586,65.71435737611689,331.1678657412697,82.73641647339251,2287.078437700783,19841214.2552932,38694.2300595497,COM,190,,153,,,,,
"     C/1984 W2 (Hartley)",0.999579,4.000234,89.3273,250.2083,255.2662,18999.4867019,19850928.3655000,,COM,1278,,45,F,,,,
"     C/1985 K1 (Machholz)",1.0,0.106252,16.2766,195.4353,274.5004,,19850628.7388000,,PAR,102,,28,T,,,,
"     C/1985 R1 (Hartley-Good)",.9998838953999036,.6945788469991082,79.92945870986766,358.3958745147032,87.03272479489142,11964.01390682205,19851209.1163193,462717.997001614,COM,187,,150,,1.334560352755113E-8,-2.157542778455772E-9,,
"     C/1985 T1 (Thiele)",0.983297,1.317140,139.0692,53.0127,53.0001,156.3958457,19851219.2111000,700,COM,294,,89,F,,,,
"     C/1986 E1 (Shoemaker)",0.946780,3.593864,159.8090,294.8423,123.5706,131.4630319,19860311.2939000,555,COM,298,,30,F,,,,
"     C/1986 N1 (Churyumov-Solodovnikov)",0.999534,2.642107,114.9293,134.6178,157.7548,11336.8729145,19860506.5039000,,COM,996,,57,F,,,,
"     C/1986 P1 (Wilson)",1.000314323622892,1.199648020736573,147.119166436454,111.6655707336779,238.3084394174511,,19870420.7818438,,HYP,980,,664,,1.770205848758062E-8,-7.107835168582886E-12,,
"     C/1986 P1-A (Wilson)",1.000312,1.199651,147.1191,111.6661,238.3072,,19870420.7809000,,HYP,980,,642,F,,,,
"     C/1986 P1-B (Wilson)",1.000797,1.199345,147.1192,111.6661,238.3135,,19870420.8853000,,HYP,421,,25,F,,,,
"     C/1986 V1 (Sorrells)",0.999909,1.721155,160.5801,74.8046,70.2329,37825.8612626,19870309.6545000,,COM,321,,270,F,,,,
"     C/1987 A1 (Levy)",1.000383,0.921485,96.5830,17.1167,95.2451,,19861217.5286000,,HYP,136,,33,F,,,,
"     C/1987 B1 (Nishikawa-Takamizawa-Tago)",.9958001192314254,.8695897599161283,172.2299287398941,176.0106589249051,200.4021243161781,413.232527815799,19870317.3455054,2979.36962503798,COM,131,,79,,,,,
"     C/1987 B2 (Terasako)",0.995125,0.393020,40.8543,97.7060,195.2764,160.8459544,19861224.8716000,724,COM,37,,25,F,,,,
"     C/1987 F1 (Torres)",1.001008,3.624588,124.0800,194.4877,329.0892,,19870410.2749000,,HYP,1005,,43,F,,,,
"     C/1987 H1 (Shoemaker)",1.002839,5.457548,132.4743,268.3257,16.9960,,19861117.1066000,,HYP,978,,82,F,,,,
"     C/1987 P1 (Bradfield)",.9947383511154976,.868956145497533,34.08809392070816,268.0929048363991,73.8996317907493,329.4290795356527,19871107.2741020,2122.37536057014,COM,245,,574,,,,,
"     C/1987 Q1 (Rudenko)",1.000437,0.602603,114.8751,298.5696,143.8336,,19871009.5281000,,HYP,156,,90,F,,,,
"     C/1987 T1 (Levy)",1.0,0.515185,62.5345,143.7254,13.1872,,19870909.1716000,,PAR,35,,13,T,,,,
"     C/1987 T2 (SMM)",1.0,0.00538,144.256,1.159,80.591,,19871006.0690000,,PAR,0,,,T,,,,
"     C/1987 U3 (McNaught)",.9985408984948647,.8411628991574667,97.12651965007115,261.3419125834055,17.40870119624886,1152.146338240423,19871211.9390898,13842.0402531576,COM,504,,104,,8.231992522373778E-8,3.802499217495752E-9,,
"     C/1987 U4 (SMM)",1.0,0.00627,144.466,3.660,82.632,,19871018.0270000,,PAR,0,,,T,,,,
"     C/1987 W1 (Ichimura)",1.0,.1995166343368573,41.6225849543798,226.5288595612602,329.2921404130273,,19880110.1040709,,PAR,29,,40,T,,,,
"     C/1987 W2 (Furuyama)",1.000202,1.679526,117.7834,250.7538,233.6271,,19880303.0681000,,HYP,261,,134,F,,,,
"     C/1987 W3 (Jensen-Shoemaker)",1.004767,3.332819,76.7159,198.3456,194.7364,,19880118.8095000,,HYP,948,,33,F,,,,
"     C/1988 A1 (Liller)",0.996565,0.841333,73.3224,31.5154,57.3876,489.0177645,19880331.1144000,,COM,184,,100,F,,,,
"     C/1988 B1 (Shoemaker)",1.002519,5.030826,80.5858,325.1598,124.2192,,19870320.1203000,,HYP,706,,56,F,,,,
"     C/1988 C1 (Maury-Phinney)",1.0,1.930534,93.1570,147.5202,346.8345,,19871226.7884000,,PAR,56,,22,T,,,,
"     C/1988 F1 (Levy)",0.997816,1.174176,62.8074,288.7651,326.5149,1074.0785713,19871129.9472000,,COM,118,,30,F,,,,
"     C/1988 J1 (Shoemaker-Holt)",0.997830,1.174466,62.8066,288.7649,326.5150,1081.2826769,19880214.2216000,,COM,160,,60,F,,,,
"     C/1988 L1 (Shoemaker-Holt-Rodriquez)",1.000670201350802,2.474294703229291,97.68849476093813,115.2551223408747,232.1460473993948,,19890612.4650556,,HYP,652,,149,,,,,
"     C/1988 M1 (SMM)",1.0,0.00516,144.706,7.660,85.882,,19880627.7840000,,PAR,0,,,T,,,,
"     C/1988 P1 (Machholz)",1.0,0.164558,40.1990,167.7281,349.0366,,19880917.5682000,,PAR,26,,30,T,,,,
"     C/1988 Q1 (SMM)",1.0,0.00591,144.436,3.200,82.252,,19880821.8190000,,PAR,0,,,T,,,,
"     C/1988 T1 (SMM)",1.0,0.00513,144.786,10.351,88.083,,19881012.0720000,,PAR,0,,,T,,,,
"     C/1988 U1 (SMM)",1.0,0.00579,144.716,7.981,86.142,,19881024.8640000,,PAR,0,,,T,,,,
"     C/1988 W1 (SMM)",1.0,0.00590,144.796,14.021,91.084,,19881118.3690000,,PAR,0,,,T,,,,
"     C/1988 Y1 (Yanaka)",1.0,0.427818,71.0077,315.5225,88.1228,,19881211.6530000,,PAR,28,,33,T,,,,
"     C/1989 A1 (Yanaka)",.9986566167827319,1.894594557517279,52.4095838594279,157.0884603971302,351.5604073091913,2818.736976782323,19881031.8027810,52964.2409654087,COM,188,,93,,,,,
"     C/1989 A3 (Bradfield)",0.977708,0.420271,83.0672,28.4357,194.7353,37.2857222,19881205.2437000,81.9,HTC,53,,16,T,,,,
"     C/1989 A5 (Shoemaker)",0.995180,2.639507,96.5548,137.1386,19.1090,1092.5916133,19890226.0920000,,COM,82,,53,F,,,,
"     C/1989 A6 (Shoemaker)",1.0,2.207834,25.5050,74.3147,18.8355,,19881102.0870000,,PAR,53,,25,T,,,,
"     C/1989 L1 (SMM)",1.0,0.00557,144.636,6.240,84.722,,19890602.5780000,,PAR,0,,,T,,,,
"     C/1989 N3 (SMM)",1.0,0.00462,144.786,14.902,91.804,,19890708.7720000,,PAR,0,,,T,,,,
"     C/1989 Q1 (Okazaki-Levy-Rudenko)",1.000055483089262,.642330435830416,90.14594724476264,275.5100755923672,150.5711002216734,,19891111.9162521,,HYP,122,,225,,3.836625688026788E-8,2.647062134272908E-9,,
"     C/1989 R1 (Helin-Roman)",1.0,1.324502,128.1341,128.6096,154.9103,,19890820.2910000,,PAR,49,,17,T,,,,
"     C/1989 S1 (SMM)",1.0,0.00476,144.768,9.636,87.499,,19890928.8550000,,PAR,0,,,T,,,,
"     C/1989 T1 (Helin-Roman-Alu)",0.990657,1.047322,46.0369,8.5186,68.1263,223.1466200,19891215.9422000,,COM,116,,72,F,,,,
"     C/1989 W1 (Aarseth-Brewington)",1.000093173669367,.3006867375979394,88.38765807172712,345.9146322153377,205.2589729652776,,19891227.8885259,,HYP,72,,68,,,,,
"     C/1989 X1 (Austin)",1.000228634268294,.3497737572066227,58.95644079395399,75.92533590271421,61.57633764253554,,19900409.9676116,,HYP,203,,250,,,,,
"     C/1989 Y1 (Skorichenko-George)",1.00029455446894,1.569168517219455,59.36586123107189,280.0093592116608,137.8333198446836,,19900411.9298721,,HYP,1008,,100,,,,,
"     C/1989 Y2 (McKenzie-Russell)",1.0,1.975817,160.3369,293.8975,191.7410,,19891107.6939000,,PAR,49,,28,T,,,,
"     C/1990 E1 (Cernis-Kiuchi-Nakamura)",1.0,1.068339,48.1425,348.4448,100.6214,,19900317.3264000,,PAR,72,,58,T,,,,
"     C/1990 K1 (Levy)",1.000626370846714,.9387206924917632,131.5839912575771,139.364169264127,242.6669392756395,,19901024.6830112,,HYP,627,,576,,,,,
"     C/1990 M1 (McNaught-Hughes)",1.001198,2.682238,132.7742,233.2060,18.1719,,19910227.6666000,,HYP,317,,36,F,,,,
"     C/1990 N1 (Tsuchiya-Kiuchi)",0.995316,1.092424,143.7839,330.7378,180.9189,465.3567647,19900928.7418000,,COM,160,,54,F,,,,
"     C/1991 A2 (Arai)",0.990507,1.434161,70.9783,115.5226,337.6388,300.7171084,19901210.8873000,,COM,80,,55,F,,,,
"     C/1991 B1 (Shoemaker-Levy)",0.993508,2.265035,77.2881,145.1295,74.3650,695.5276329,19911231.1804000,,COM,676,,362,F,,,,
"     C/1991 C3 (McNaught-Russell)",1.001769,4.777087,113.4304,161.7096,320.8865,,19901018.1990000,,HYP,460,,35,F,,,,
"     C/1991 F2 (Helin-Lawrence)",1.000431,1.517721,95.4565,11.8349,271.1592,,19920120.0270000,,HYP,585,,97,F,,,,
"     C/1991 L3 (Levy)",.9288178630692923,.9825594709493259,19.19030996858108,329.4309837211803,41.47119826431925,26.62435185023786,19910708.1946460,51.2849503128594,HTC,587,3,125,,,,,
"     C/1991 L4 (Helin-Alu)",1.000083,4.849913,49.2952,253.6535,30.7913,,19920219.9305000,,HYP,534,,73,F,,,,
"     C/1991 Q1 (McNaught-Russell)",0.994581,3.193954,90.5062,120.4638,257.2310,1175.6043483,19920503.4466000,,COM,647,,28,F,,,,
"     C/1991 R1 (McNaught-Russell)",0.999374,6.986340,104.5086,150.1176,149.2398,22313.5887399,19901112.2258000,,COM,1078,,34,F,,,,
"     C/1991 T2 (Shoemaker-Levy)",.9998600548432995,.8362597065530198,113.4970851088293,49.0493845247663,145.2387375010539,11950.41273339658,19920724.5067625,461937.426675108,COM,320,,206,,,,,
"     C/1991 X2 (Mueller)",1.000220756914738,.1988142885010044,95.57923987605376,288.781915703347,306.9819325866603,,19920321.2005357,,HYP,81,,145,,,,,
"     C/1991 Y1 (Zanotta-Brewington)",1.000057876069162,.6439690056606084,50.028420073166,254.9078260707935,197.8727608822565,,19920131.9915019,,HYP,130,,257,,,,,
"     C/1992 A1 (Helin-Alu)",1.004149,3.016578,39.2638,288.9032,239.8431,,19920708.6877000,,HYP,439,,42,F,,,,
"     C/1992 B1 (Bradfield)",1.0,0.500157,20.2378,275.3503,15.3368,,19920319.5392000,,PAR,11,,19,T,,,,
"     C/1992 F1 (Tanaka-Machholz)",0.995966,1.261498,79.2924,300.5082,65.4746,624.1713230,19920422.6902000,,COM,297,,144,F,,,,
"     C/1992 J1 (Spacewatch)",0.999961,3.007006,124.3187,203.3240,83.4011,154202.4288914,19930905.5483000,,COM,1007,,214,F,,,,
"     C/1992 J2 (Bradfield)",1.0,0.592305,158.5644,159.9981,299.7170,,19920525.7940000,,PAR,31,,10,T,,,,
"     C/1992 N1 (Machholz)",1.0,0.819198,57.6407,235.1287,162.6392,,19920710.8186000,,PAR,5,,8,T,,,,
"     C/1992 Q2 (Helin-Lawrence)",0.965365,2.038458,106.8481,194.6672,268.8535,115.6724125,19930315.1112000,452,COM,592,,69,F,,,,
